NORAD_CAT_ID,OBJECT_NAME,OBJECT_TYPE,EPOCH,MEAN_MOTION,ECCENTRICITY,INCLINATION,RA_OF_ASC_NODE,ARG_OF_PERICENTER,MEAN_ANOMALY,BSTAR,MEAN_MOTION_DOT,MEAN_MOTION_DDOT,TLE_LINE0,TLE_LINE1,TLE_LINE2,SEMIMAJOR_AXIS,PERIOD,APOGEE,PERIGEE,DECAYED
52689.0,STARLINK-4078,PAYLOAD,2023-09-04 02:10:20,15.08828423,0.0001343,53.2152,303.3856,90.1459,269.9687,-0.00016104,-2.849e-05,0.0,0 STARLINK-4078,1 52689U 22053AK  23247.09051169 -.00002849  00000-0 -16104-3 0  9991,2 52689  53.2152 303.3856 0001343  90.1459 269.9687 15.08828423 72228,6917.916,95.438,540.71,538.852,0.0
52689.0,STARLINK-4078,PAYLOAD,2023-09-04 13:18:02,15.08828435,0.0001344,53.2151,301.3039,91.0448,269.0698,7.0903e-06,-1.75e-06,0.0,0 STARLINK-4078,1 52689U 22053AK  23247.55419475 -.00000175  00000-0  70903-5 0  9998,2 52689  53.2151 301.3039 0001344  91.0448 269.0698 15.08828435 72694,6917.916,95.438,540.711,538.851,0.0
52689.0,STARLINK-4078,PAYLOAD,2023-09-05 03:36:31,15.08839207,0.000135,53.2151,298.6274,92.0768,268.0379,0.00091282,0.00014269,0.0,0 STARLINK-4078,1 52689U 22053AK  23248.15035948  .00014269  00000-0  91282-3 0  9993,2 52689  53.2151 298.6274 0001350  92.0768 268.0379 15.08839207 72386,6917.883,95.438,540.682,538.814,0.0
52689.0,STARLINK-4078,PAYLOAD,2023-09-05 13:08:49,15.08849543,0.0001345,53.2153,296.8431,91.4381,268.6766,0.00086725,0.00013545,0.0,0 STARLINK-4078,1 52689U 22053AK  23248.54779786  .00013545  00000-0  86725-3 0  9993,2 52689  53.2153 296.8431 0001345  91.4381 268.6766 15.08849543 72842,6917.851,95.437,540.647,538.786,0.0
52689.0,STARLINK-4078,PAYLOAD,2023-09-06 03:27:18,15.08843447,0.000135,53.2154,294.1667,92.5718,267.5429,0.00038477,5.842e-05,0.0,0 STARLINK-4078,1 52689U 22053AK  23249.14395919  .00005842  00000-0  38477-3 0  9994,2 52689  53.2154 294.1667 0001350  92.5718 267.5429 15.08843447 72534,6917.87,95.437,540.669,538.801,0.0
52689.0,STARLINK-4078,PAYLOAD,2023-09-06 12:59:36,15.08850792,0.000135,53.2156,292.3825,91.9142,268.2004,0.00040714,6.2e-05,0.0,0 STARLINK-4078,1 52689U 22053AK  23249.54139575  .00006200  00000-0  40714-3 0  9998,2 52689  53.2156 292.3825 0001350  91.9142 268.2004 15.08850792 72994,6917.847,95.437,540.646,538.778,0.0
52689.0,STARLINK-4078,PAYLOAD,2023-09-06 14:34:59,15.08851868,0.0001347,53.2156,292.0851,91.92,268.1946,0.00041684,6.354e-05,0.0,0 STARLINK-4078,1 52689U 22053AK  23249.60763517  .00006354  00000-0  41684-3 0  9991,2 52689  53.2156 292.0851 0001347  91.9200 268.1946 15.08851868 73003,6917.844,95.437,540.641,538.777,0.0
52689.0,STARLINK-4078,PAYLOAD,2023-09-07 01:42:42,15.08837706,0.000133,53.2155,290.0034,93.13,266.9845,4.2071e-05,3.82e-06,0.0,0 STARLINK-4078,1 52689U 22053AK  23250.07131954  .00000382  00000-0  42071-4 0  9995,2 52689  53.2155 290.0034 0001330  93.1300 266.9845 15.08837706 72671,6917.887,95.438,540.672,538.832,0.0
52689.0,STARLINK-4078,PAYLOAD,2023-09-07 12:50:23,15.08842515,0.0001298,53.2161,287.9224,93.8254,266.2886,9.1503e-05,1.169e-05,0.0,0 STARLINK-4078,1 52689U 22053AK  23250.53499830  .00001169  00000-0  91503-4 0  9994,2 52689  53.2161 287.9224 0001298  93.8254 266.2886 15.08842515 73147,6917.873,95.437,540.636,538.84,0.0
52689.0,STARLINK-4078,PAYLOAD,2023-09-07 14:25:46,15.08843273,0.0001299,53.2161,287.6249,93.9875,266.1266,8.1781e-05,1.014e-05,0.0,0 STARLINK-4078,1 52689U 22053AK  23250.60123761  .00001014  00000-0  81781-4 0  9995,2 52689  53.2161 287.6249 0001299  93.9875 266.1266 15.08843273 73156,6917.87,95.437,540.634,538.837,0.0
52689.0,STARLINK-4078,PAYLOAD,2023-09-08 07:55:01,15.08842621,0.0001304,53.216,284.3538,93.0588,267.0554,0.00011368,1.522e-05,0.0,0 STARLINK-4078,1 52689U 22053AK  23251.32987770  .00001522  00000-0  11368-3 0  9990,2 52689  53.2160 284.3538 0001304  93.0588 267.0554 15.08842621 72862,6917.872,95.437,540.639,538.835,0.0
52689.0,STARLINK-4078,PAYLOAD,2023-09-08 12:41:10,15.08846397,0.0001308,53.216,283.4617,92.2662,267.848,0.00011882,1.604e-05,0.0,0 STARLINK-4078,1 52689U 22053AK  23251.52859476  .00001604  00000-0  11882-3 0  9995,2 52689  53.2160 283.4617 0001308  92.2662 267.8480 15.08846397 73296,6917.861,95.437,540.631,538.821,0.0
52689.0,STARLINK-4078,PAYLOAD,2023-09-08 19:02:43,15.08838836,0.0001315,53.2161,282.2719,91.7744,268.3399,8.8405e-06,-1.47e-06,0.0,0 STARLINK-4078,1 52689U 22053AK  23251.79356165 -.00000147  00000-0  88405-5 0  9990,2 52689  53.2161 282.2719 0001315  91.7744 268.3399 15.08838836 73339,6917.884,95.438,540.659,538.839,0.0
52689.0,STARLINK-4078,PAYLOAD,2023-09-09 10:56:35,15.08840607,0.0001346,53.2159,279.2984,88.9892,271.1255,0.00012693,1.733e-05,0.0,0 STARLINK-4078,1 52689U 22053AK  23252.45596072  .00001733  00000-0  12693-3 0  9992,2 52689  53.2159 279.2984 0001346  88.9892 271.1255 15.08840607 73435,6917.879,95.438,540.675,538.812,0.0
52689.0,STARLINK-4078,PAYLOAD,2023-09-10 09:11:58,15.08847438,0.000151,53.2164,275.1361,95.6323,264.4841,0.00011736,1.581e-05,0.0,0 STARLINK-4078,1 52689U 22053AK  23253.38331717  .00001581  00000-0  11736-3 0  9996,2 52689  53.2164 275.1361 0001510  95.6323 264.4841 15.08847438 73178,6917.858,95.437,540.767,538.678,0.0
52689.0,STARLINK-4078,PAYLOAD,2023-09-10 10:47:21,15.08847335,0.0001674,53.2163,274.8385,109.4357,250.6817,0.00015687,2.21e-05,0.0,0 STARLINK-4078,1 52689U 22053AK  23253.44955612  .00002210  00000-0  15687-3 0  9998,2 52689  53.2163 274.8385 0001674 109.4357 250.6817 15.08847335 73582,6917.858,95.437,540.881,538.565,0.0
52689.0,STARLINK-4078,PAYLOAD,2023-09-10 18:44:17,15.08844548,0.0001469,53.2161,273.3523,84.2625,275.8535,5.1705e-05,5.35e-06,0.0,0 STARLINK-4078,1 52689U 22053AK  23253.78076062  .00000535  00000-0  51705-4 0  9998,2 52689  53.2161 273.3523 0001469  84.2625 275.8535 15.08844548 73239,6917.866,95.437,540.748,538.715,0.0
52689.0,STARLINK-4078,PAYLOAD,2023-09-11 07:27:23,15.08836377,0.0001552,53.2157,270.9724,83.8433,276.2736,8.041e-05,9.92e-06,0.0,0 STARLINK-4078,1 52689U 22053AK  23254.31068719  .00000992  00000-0  80410-4 0  9990,2 52689  53.2157 270.9724 0001552  83.8433 276.2736 15.08836377 73313,6917.891,95.438,540.83,538.683,0.0
52689.0,STARLINK-4078,PAYLOAD,2023-09-11 18:35:04,15.08843948,0.0001579,53.216,268.8909,83.4126,276.7046,8.2432e-05,1.024e-05,0.0,0 STARLINK-4078,1 52689U 22053AK  23254.77436247  .00001024  00000-0  82432-4 0  9998,2 52689  53.2160 268.8909 0001579  83.4126 276.7046 15.08843948 73380,6917.868,95.437,540.826,538.641,0.0
52689.0,STARLINK-4078,PAYLOAD,2023-09-12 12:04:18,15.08854778,0.0001568,53.216,265.6192,84.8316,275.2855,0.00013392,1.845e-05,0.0,0 STARLINK-4078,1 52689U 22053AK  23255.50299216  .00001845  00000-0  13392-3 0  9992,2 52689  53.2160 265.6192 0001568  84.8316 275.2855 15.08854778 73894,6917.835,95.437,540.785,538.616,0.0
52689.0,STARLINK-4078,PAYLOAD,2023-09-13 10:19:42,15.08845658,0.0001693,53.2171,261.4527,97.4289,262.6896,0.00013535,1.867e-05,0.0,0 STARLINK-4078,1 52689U 22053AK  23256.43035696  .00001867  00000-0  13535-3 0  9998,2 52689  53.2171 261.4527 0001693  97.4289 262.6896 15.08845658 73634,6917.863,95.437,540.899,538.557,0.0
52689.0,STARLINK-4078,PAYLOAD,2023-09-13 11:55:05,15.08849555,0.0001687,53.2172,261.1556,97.1344,262.9839,0.00016739,2.378e-05,0.0,0 STARLINK-4078,1 52689U 22053AK  23256.49659338  .00002378  00000-0  16739-3 0  9996,2 52689  53.2172 261.1556 0001687  97.1344 262.9839 15.08849555 74042,6917.851,95.437,540.883,538.549,0.0
52689.0,STARLINK-4078,PAYLOAD,2023-09-13 23:02:48,15.08831024,0.0001614,53.2157,259.0761,95.2117,264.9059,-0.00014281,-2.56e-05,0.0,0 STARLINK-4078,1 52689U 22053AK  23256.96028658 -.00002560  00000-0 -14281-3 0  9998,2 52689  53.2157 259.0761 0001614  95.2117 264.9059 15.08831024 73717,6917.908,95.438,540.889,538.656,0.0
52689.0,STARLINK-4078,PAYLOAD,2023-09-14 05:24:21,15.08830186,0.0001658,53.2152,257.888,88.2494,271.8688,-0.00012125,-2.217e-05,0.0,0 STARLINK-4078,1 52689U 22053AK  23257.22524947 -.00002217  00000-0 -12125-3 0  9994,2 52689  53.2152 257.8880 0001658  88.2494 271.8688 15.08830186 74150,6917.91,95.438,540.922,538.628,0.0
52689.0,STARLINK-4078,PAYLOAD,2023-09-14 16:32:03,15.0883553,0.0001649,53.2156,255.8068,84.5854,275.5326,-5.1757e-05,-1.112e-05,0.0,0 STARLINK-4078,1 52689U 22053AK  23257.68892775 -.00001112  00000-0 -51757-4 0  9999,2 52689  53.2156 255.8068 0001649  84.5854 275.5326 15.08835530 74225,6917.894,95.438,540.9,538.618,0.0
52689.0,STARLINK-4078,PAYLOAD,2023-09-15 00:28:59,15.08838678,0.0001542,53.2155,254.3189,85.3456,274.7712,0.00012954,1.774e-05,0.0,0 STARLINK-4078,1 52689U 22053AK  23258.02012775  .00001774  00000-0  12954-3 0  9999,2 52689  53.2155 254.3189 0001542  85.3456 274.7712 15.08838678 73877,6917.884,95.438,540.816,538.683,0.0
52689.0,STARLINK-4078,PAYLOAD,2023-09-15 06:50:31,15.08846424,0.0001618,53.2154,253.1302,82.5004,277.6172,0.00028793,4.298e-05,0.0,0 STARLINK-4078,1 52689U 22053AK  23258.28508655  .00004298  00000-0  28793-3 0  9996,2 52689  53.2154 253.1302 0001618  82.5004 277.6172 15.08846424 74312,6917.861,95.437,540.845,538.606,0.0
52689.0,STARLINK-4078,PAYLOAD,2023-09-16 05:05:55,15.08846124,0.0001608,53.2149,248.9672,88.9988,271.1188,0.0003051,4.572e-05,0.0,0 STARLINK-4078,1 52689U 22053AK  23259.21244783  .00004572  00000-0  30510-3 0  9994,2 52689  53.2149 248.9672 0001608  88.9988 271.1188 15.08846124 74052,6917.862,95.437,540.839,538.614,0.0
52689.0,STARLINK-4078,PAYLOAD,2023-09-16 22:35:10,15.08834275,0.0001625,53.2151,245.6964,89.3526,270.7653,-0.00010266,-1.921e-05,0.0,0 STARLINK-4078,1 52689U 22053AK  23259.94109046 -.00001921  00000-0 -10266-3 0  9999,2 52689  53.2151 245.6964 0001625  89.3526 270.7653 15.08834275 74163,6917.898,95.438,540.887,538.639,0.0
52689.0,STARLINK-4078,PAYLOAD,2023-09-17 08:07:28,15.0884277,0.0001638,53.2154,243.9121,88.8454,271.2725,4.748e-05,4.68e-06,0.0,0 STARLINK-4078,1 52689U 22053AK  23260.33852840  .00000468  00000-0  47480-4 0  9993,2 52689  53.2154 243.9121 0001638  88.8454 271.2725 15.08842770 74626,6917.872,95.437,540.87,538.604,0.0
